[{"OBJECT_NAME":"STARLINK-30863","OBJECT_ID":"2024-038E","EPOCH":"2026-03-09T07:15:29.952000","MEAN_MOTION":15.27577328,"ECCENTRICITY":0.00010151,"INCLINATION":43.0016,"RA_OF_ASC_NODE":29.6402,"ARG_OF_PERICENTER":236.7513,"MEAN_ANOMALY":123.3241,"EPHEMERIS_TYPE":0,"CLASSIFICATION_TYPE":"U","NORAD_CAT_ID":59027,"ELEMENT_SET_NO":999,"REV_AT_EPOCH":11458,"BSTAR":-1.5180457e-5,"MEAN_MOTION_DOT":-6.8e-6,"MEAN_MOTION_DDOT":0},{"OBJECT_NAME":"OBJECT BC","OBJECT_ID":"2025-313BC","EPOCH":"2026-03-09T04:33:08.504064","MEAN_MOTION":15.29126358,"ECCENTRICITY":0.00084789,"INCLINATION":97.3985,"RA_OF_ASC_NODE":144.811,"ARG_OF_PERICENTER":328.9209,"MEAN_ANOMALY":31.1528,"EPHEMERIS_TYPE":0,"CLASSIFICATION_TYPE":"U","NORAD_CAT_ID":67298,"ELEMENT_SET_NO":999,"REV_AT_EPOCH":789,"BSTAR":0.0026410397,"MEAN_MOTION_DOT":0.00075331,"MEAN_MOTION_DDOT":0}]
